CCSDS_OMM_VERS = 2.0
CREATION_DATE  = 
ORIGINATOR     = 

OBJECT_NAME    = SDA-1676
OBJECT_ID      = 2025-230N
CENTER_NAME    = EARTH
REF_FRAME      = TEME
TIME_SYSTEM    = UTC
MEAN_ELEMENT_THEORY = SGP/SGP4

EPOCH          = 2025-10-31T19:57:48.281184
MEAN_MOTION    = 13.84575350
ECCENTRICITY   = .0002905
INCLINATION    = 81.3019
RA_OF_ASC_NODE = 63.4822
ARG_OF_PERICENTER = 64.1727
MEAN_ANOMALY   = 295.9729

EPHEMERIS_TYPE = 0
CLASSIFICATION_TYPE = U
NORAD_CAT_ID   = 65986
ELEMENT_SET_NO = 999
REV_AT_EPOCH   = 220
BSTAR          = .36826E-3
MEAN_MOTION_DOT = .425E-5
MEAN_MOTION_DDOT = 0

CCSDS_OMM_VERS = 2.0
CREATION_DATE  = 
ORIGINATOR     = 

OBJECT_NAME    = SDA-1677
OBJECT_ID      = 2025-230P
CENTER_NAME    = EARTH
REF_FRAME      = TEME
TIME_SYSTEM    = UTC
MEAN_ELEMENT_THEORY = SGP/SGP4

EPOCH          = 2025-10-31T19:56:23.471808
MEAN_MOTION    = 13.84660966
ECCENTRICITY   = .0003244
INCLINATION    = 81.2992
RA_OF_ASC_NODE = 63.4776
ARG_OF_PERICENTER = 69.0341
MEAN_ANOMALY   = 291.1163

EPHEMERIS_TYPE = 0
CLASSIFICATION_TYPE = U
NORAD_CAT_ID   = 65987
ELEMENT_SET_NO = 999
REV_AT_EPOCH   = 220
BSTAR          = .36761E-3
MEAN_MOTION_DOT = .425E-5
MEAN_MOTION_DDOT = 0

CCSDS_OMM_VERS = 2.0
CREATION_DATE  = 
ORIGINATOR     = 

OBJECT_NAME    = SDA-1678
OBJECT_ID      = 2025-230Q
CENTER_NAME    = EARTH
REF_FRAME      = TEME
TIME_SYSTEM    = UTC
MEAN_ELEMENT_THEORY = SGP/SGP4

EPOCH          = 2025-10-31T17:58:26.809824
MEAN_MOTION    = 13.85509803
ECCENTRICITY   = .0004988
INCLINATION    = 81.3024
RA_OF_ASC_NODE = 63.5390
ARG_OF_PERICENTER = 118.4027
MEAN_ANOMALY   = 241.7634

EPHEMERIS_TYPE = 0
CLASSIFICATION_TYPE = U
NORAD_CAT_ID   = 65988
ELEMENT_SET_NO = 999
REV_AT_EPOCH   = 219
BSTAR          = .31854E-3
MEAN_MOTION_DOT = .375E-5
MEAN_MOTION_DDOT = 0

CCSDS_OMM_VERS = 2.0
CREATION_DATE  = 
ORIGINATOR     = 

OBJECT_NAME    = SDA-1679
OBJECT_ID      = 2025-230R
CENTER_NAME    = EARTH
REF_FRAME      = TEME
TIME_SYSTEM    = UTC
MEAN_ELEMENT_THEORY = SGP/SGP4

EPOCH          = 2025-10-31T19:45:44.739072
MEAN_MOTION    = 13.85309524
ECCENTRICITY   = .0005133
INCLINATION    = 81.3022
RA_OF_ASC_NODE = 63.4755
ARG_OF_PERICENTER = 107.0640
MEAN_ANOMALY   = 253.1080

EPHEMERIS_TYPE = 0
CLASSIFICATION_TYPE = U
NORAD_CAT_ID   = 65989
ELEMENT_SET_NO = 999
REV_AT_EPOCH   = 220
BSTAR          = .37784E-3
MEAN_MOTION_DOT = .441E-5
MEAN_MOTION_DDOT = 0

CCSDS_OMM_VERS = 2.0
CREATION_DATE  = 
ORIGINATOR     = 

OBJECT_NAME    = SDA-1680
OBJECT_ID      = 2025-230S
CENTER_NAME    = EARTH
REF_FRAME      = TEME
TIME_SYSTEM    = UTC
MEAN_ELEMENT_THEORY = SGP/SGP4

EPOCH          = 2025-10-31T19:47:44.564640
MEAN_MOTION    = 13.85187972
ECCENTRICITY   = .0005032
INCLINATION    = 81.3013
RA_OF_ASC_NODE = 63.4723
ARG_OF_PERICENTER = 100.2817
MEAN_ANOMALY   = 259.8908

EPHEMERIS_TYPE = 0
CLASSIFICATION_TYPE = U
NORAD_CAT_ID   = 65990
ELEMENT_SET_NO = 999
REV_AT_EPOCH   = 220
BSTAR          = .34824E-3
MEAN_MOTION_DOT = .407E-5
MEAN_MOTION_DDOT = 0

CCSDS_OMM_VERS = 2.0
CREATION_DATE  = 
ORIGINATOR     = 

OBJECT_NAME    = SDA-1681
OBJECT_ID      = 2025-230T
CENTER_NAME    = EARTH
REF_FRAME      = TEME
TIME_SYSTEM    = UTC
MEAN_ELEMENT_THEORY = SGP/SGP4

EPOCH          = 2025-10-31T19:46:25.555296
MEAN_MOTION    = 13.85267701
ECCENTRICITY   = .0005115
INCLINATION    = 81.3011
RA_OF_ASC_NODE = 63.4695
ARG_OF_PERICENTER = 104.7819
MEAN_ANOMALY   = 255.3906

EPHEMERIS_TYPE = 0
CLASSIFICATION_TYPE = U
NORAD_CAT_ID   = 65991
ELEMENT_SET_NO = 999
REV_AT_EPOCH   = 220
BSTAR          = .33287E-3
MEAN_MOTION_DOT = .39E-5
MEAN_MOTION_DDOT = 0

CCSDS_OMM_VERS = 2.0
CREATION_DATE  = 
ORIGINATOR     = 

OBJECT_NAME    = SDA-1682
OBJECT_ID      = 2025-230U
CENTER_NAME    = EARTH
REF_FRAME      = TEME
TIME_SYSTEM    = UTC
MEAN_ELEMENT_THEORY = SGP/SGP4

EPOCH          = 2025-10-31T18:09:31.955040
MEAN_MOTION    = 13.84832083
ECCENTRICITY   = .0003803
INCLINATION    = 81.3039
RA_OF_ASC_NODE = 63.5492
ARG_OF_PERICENTER = 78.9032
MEAN_ANOMALY   = 281.2552

EPHEMERIS_TYPE = 0
CLASSIFICATION_TYPE = U
NORAD_CAT_ID   = 65992
ELEMENT_SET_NO = 999
REV_AT_EPOCH   = 219
BSTAR          = .31144E-3
MEAN_MOTION_DOT = .363E-5
MEAN_MOTION_DDOT = 0

CCSDS_OMM_VERS = 2.0
CREATION_DATE  = 
ORIGINATOR     = 

OBJECT_NAME    = SDA-1683
OBJECT_ID      = 2025-230V
CENTER_NAME    = EARTH
REF_FRAME      = TEME
TIME_SYSTEM    = UTC
MEAN_ELEMENT_THEORY = SGP/SGP4

EPOCH          = 2025-10-31T18:08:13.155648
MEAN_MOTION    = 13.84912429
ECCENTRICITY   = .0004136
INCLINATION    = 81.3029
RA_OF_ASC_NODE = 63.5461
ARG_OF_PERICENTER = 81.9430
MEAN_ANOMALY   = 278.2196

EPHEMERIS_TYPE = 0
CLASSIFICATION_TYPE = U
NORAD_CAT_ID   = 65993
ELEMENT_SET_NO = 999
REV_AT_EPOCH   = 219
BSTAR          = .3063E-3
MEAN_MOTION_DOT = .358E-5
MEAN_MOTION_DDOT = 0

CCSDS_OMM_VERS = 2.0
CREATION_DATE  = 
ORIGINATOR     = 

OBJECT_NAME    = SDA-1684
OBJECT_ID      = 2025-230W
CENTER_NAME    = EARTH
REF_FRAME      = TEME
TIME_SYSTEM    = UTC
MEAN_ELEMENT_THEORY = SGP/SGP4

EPOCH          = 2025-10-31T19:54:37.924704
MEAN_MOTION    = 13.84768670
ECCENTRICITY   = .0003919
INCLINATION    = 81.3012
RA_OF_ASC_NODE = 63.4788
ARG_OF_PERICENTER = 68.7477
MEAN_ANOMALY   = 291.4098

EPHEMERIS_TYPE = 0
CLASSIFICATION_TYPE = U
NORAD_CAT_ID   = 65994
ELEMENT_SET_NO = 999
REV_AT_EPOCH   = 220
BSTAR          = .40676E-3
MEAN_MOTION_DOT = .47E-5
MEAN_MOTION_DDOT = 0

CCSDS_OMM_VERS = 2.0
CREATION_DATE  = 
ORIGINATOR     = 

OBJECT_NAME    = HULIANWANG DIGUI 12A
OBJECT_ID      = 2025-231A
CENTER_NAME    = EARTH
REF_FRAME      = TEME
TIME_SYSTEM    = UTC
MEAN_ELEMENT_THEORY = SGP/SGP4

EPOCH          = 2025-10-31T16:30:52.870752
MEAN_MOTION    = 14.03847095
ECCENTRICITY   = .0006453
INCLINATION    = 50.0006
RA_OF_ASC_NODE = 294.0998
ARG_OF_PERICENTER = 307.7436
MEAN_ANOMALY   = 52.2883

EPHEMERIS_TYPE = 0
CLASSIFICATION_TYPE = U
NORAD_CAT_ID   = 65995
ELEMENT_SET_NO = 999
REV_AT_EPOCH   = 220
BSTAR          = .14868E-3
MEAN_MOTION_DOT = .84E-6
MEAN_MOTION_DDOT = 0

CCSDS_OMM_VERS = 2.0
CREATION_DATE  = 
ORIGINATOR     = 

OBJECT_NAME    = HULIANWANG DIGUI 12B
OBJECT_ID      = 2025-231B
CENTER_NAME    = EARTH
REF_FRAME      = TEME
TIME_SYSTEM    = UTC
MEAN_ELEMENT_THEORY = SGP/SGP4

EPOCH          = 2025-10-31T16:34:58.805760
MEAN_MOTION    = 14.03878084
ECCENTRICITY   = .000902
INCLINATION    = 49.9994
RA_OF_ASC_NODE = 294.1135
ARG_OF_PERICENTER = 313.0738
MEAN_ANOMALY   = 46.9411

EPHEMERIS_TYPE = 0
CLASSIFICATION_TYPE = U
NORAD_CAT_ID   = 65996
ELEMENT_SET_NO = 999
REV_AT_EPOCH   = 220
BSTAR          = .14759E-3
MEAN_MOTION_DOT = .83E-6
MEAN_MOTION_DDOT = 0

CCSDS_OMM_VERS = 2.0
CREATION_DATE  = 
ORIGINATOR     = 

OBJECT_NAME    = HULIANWANG DIGUI 12C
OBJECT_ID      = 2025-231C
CENTER_NAME    = EARTH
REF_FRAME      = TEME
TIME_SYSTEM    = UTC
MEAN_ELEMENT_THEORY = SGP/SGP4

EPOCH          = 2025-10-31T16:29:19.616640
MEAN_MOTION    = 14.03881628
ECCENTRICITY   = .0007567
INCLINATION    = 49.9971
RA_OF_ASC_NODE = 294.0878
ARG_OF_PERICENTER = 312.4691
MEAN_ANOMALY   = 47.5573

EPHEMERIS_TYPE = 0
CLASSIFICATION_TYPE = U
NORAD_CAT_ID   = 65997
ELEMENT_SET_NO = 999
REV_AT_EPOCH   = 220
BSTAR          = .14654E-3
MEAN_MOTION_DOT = .81E-6
MEAN_MOTION_DDOT = 0

