SDA-1676                
1 65986U 25230N   25304.83180881  .00000425  00000+0  36826-3 0  9995
2 65986  81.3019  63.4822 0002905  64.1727 295.9729 13.84575350  2204
SDA-1677                
1 65987U 25230P   25304.83082722  .00000425  00000+0  36761-3 0  9999
2 65987  81.2992  63.4776 0003244  69.0341 291.1163 13.84660966  2203
SDA-1678                
1 65988U 25230Q   25304.74892141  .00000375  00000+0  31854-3 0  9996
2 65988  81.3024  63.5390 0004988 118.4027 241.7634 13.85509803  2195
SDA-1679                
1 65989U 25230R   25304.82343448  .00000441  00000+0  37784-3 0  9999
2 65989  81.3022  63.4755 0005133 107.0640 253.1080 13.85309524  2208
SDA-1680                
1 65990U 25230S   25304.82482135  .00000407  00000+0  34824-3 0  9992
2 65990  81.3013  63.4723 0005032 100.2817 259.8908 13.85187972  2207
SDA-1681                
1 65991U 25230T   25304.82390689  .00000390  00000+0  33287-3 0  9998
2 65991  81.3011  63.4695 0005115 104.7819 255.3906 13.85267701  2205
SDA-1682                
1 65992U 25230U   25304.75661985  .00000363  00000+0  31144-3 0  9991
2 65992  81.3039  63.5492 0003803  78.9032 281.2552 13.84832083  2196
SDA-1683                
1 65993U 25230V   25304.75570782  .00000358  00000+0  30630-3 0  9999
2 65993  81.3029  63.5461 0004136  81.9430 278.2196 13.84912429  2191
SDA-1684                
1 65994U 25230W   25304.82960561  .00000470  00000+0  40676-3 0  9992
2 65994  81.3012  63.4788 0003919  68.7477 291.4098 13.84768670  2204
HULIANWANG DIGUI 12A    
1 65995U 25231A   25304.68811193  .00000084  00000+0  14868-3 0  9999
2 65995  50.0006 294.0998 0006453 307.7436  52.2883 14.03847095  2209
HULIANWANG DIGUI 12B    
1 65996U 25231B   25304.69095840  .00000083  00000+0  14759-3 0  9992
2 65996  49.9994 294.1135 0009020 313.0738  46.9411 14.03878084  2204
HULIANWANG DIGUI 12C    
1 65997U 25231C   25304.68703260  .00000081  00000+0  14654-3 0  9996
2 65997  49.9971 294.0878 0007567 312.4691  47.5573 14.03881628  2202
